[{"OBJECT_NAME":"TIANMU-1 13","OBJECT_ID":"2023-205C","EPOCH":"2026-03-10T00:00:50.036832","MEAN_MOTION":15.25862583,"ECCENTRICITY":0.00064025,"INCLINATION":97.3565,"RA_OF_ASC_NODE":92.1641,"ARG_OF_PERICENTER":331.9635,"MEAN_ANOMALY":28.1258,"EPHEMERIS_TYPE":0,"CLASSIFICATION_TYPE":"U","NORAD_CAT_ID":58647,"ELEMENT_SET_NO":999,"REV_AT_EPOCH":12237,"BSTAR":0.00032666188,"MEAN_MOTION_DOT":8.299e-5,"MEAN_MOTION_DDOT":0},{"OBJECT_NAME":"CZ-6A DEB","OBJECT_ID":"2024-140LQ","EPOCH":"2026-03-09T12:39:56.979648","MEAN_MOTION":14.85929139,"ECCENTRICITY":0.01771612,"INCLINATION":88.9207,"RA_OF_ASC_NODE":273.583,"ARG_OF_PERICENTER":149.2711,"MEAN_ANOMALY":211.9037,"EPHEMERIS_TYPE":0,"CLASSIFICATION_TYPE":"U","NORAD_CAT_ID":60965,"ELEMENT_SET_NO":999,"REV_AT_EPOCH":8358,"BSTAR":0.00081105729,"MEAN_MOTION_DOT":9.447e-5,"MEAN_MOTION_DDOT":0}]
